$$SOE
2459580.500000000, A.D. 2022-Jan-01 00:00:00.0000, -1.852886802085997E+08, -4.125058074840498E+08, -9.155660580594361E+06,
2459587.500000000, A.D. 2022-Jan-08 00:00:00.0000, -1.758762365202730E+08, -4.160216909101051E+08, -9.537392112880111E+06,
2459594.500000000, A.D. 2022-Jan-15 00:00:00.0000, -1.663712198162228E+08, -4.193185314819177E+08, -9.914101325816721E+06,
2459601.500000000, A.D. 2022-Jan-22 00:00:00.0000, -1.567783122691641E+08, -4.223937939554247E+08, -1.028557133635098E+07,
2459608.500000000, A.D. 2022-Jan-29 00:00:00.0000, -1.471022690540983E+08, -4.252450204516743E+08, -1.065158588430715E+07,
2459615.500000000, A.D. 2022-Feb-05 00:00:00.0000, -1.373479202564945E+08, -4.278698332157111E+08, -1.101192926505238E+07,
2459622.500000000, A.D. 2022-Feb-12 00:00:00.0000, -1.275201705589931E+08, -4.302659385071861E+08, -1.136638655080384E+07,
2459629.500000000, A.D. 2022-Feb-19 00:00:00.0000, -1.176239980278000E+08, -4.324311292549801E+08, -1.171474378568071E+07,
2459636.500000000, A.D. 2022-Feb-26 00:00:00.0000, -1.076644533062730E+08, -4.343632871989889E+08, -1.205678809354958E+07,
2459643.500000000, A.D. 2022-Mar-05 00:00:00.0000, -9.764665905213268E+07, -4.360603851355346E+08, -1.239230776402020E+07,
2459650.500000000, A.D. 2022-Mar-12 00:00:00.0000, -8.757580939175136E+07, -4.375204893314352E+08, -1.272109234272882E+07,
2459657.500000000, A.D. 2022-Mar-19 00:00:00.0000, -7.745716931533127E+07, -4.387417620781530E+08, -1.304293273063144E+07,
2459664.500000000, A.D. 2022-Mar-26 00:00:00.0000, -6.729607398547897E+07, -4.397224643919245E+08, -1.335762129534131E+07,
2459671.500000000, A.D. 2022-Apr-02 00:00:00.0000, -5.709792788688797E+07, -4.404609589157763E+08, -1.366495200569034E+07,
2459678.500000000, A.D. 2022-Apr-09 00:00:00.0000, -4.686820354121186E+07, -4.409557130178434E+08, -1.396472061431274E+07,
2459685.500000000, A.D. 2022-Apr-16 00:00:00.0000, -3.661243942625442E+07, -4.412053014296077E+08, -1.425672486764997E+07,
2459692.500000000, A.D. 2022-Apr-23 00:00:00.0000, -2.633623836390290E+07, -4.412084073355604E+08, -1.454076453838110E+07,
2459699.500000000, A.D. 2022-Apr-30 00:00:00.0000, -1.604526824066493E+07, -4.409638241539106E+08, -1.481664129228765E+07,
2459706.500000000, A.D. 2022-May-07 00:00:00.0000, -5.745261989827581E+06, -4.404704599779456E+08, -1.508415883204776E+07,
2459713.500000000, A.D. 2022-May-14 00:00:00.0000, 4.557984562127138E+06, -4.397273416393417E+08, -1.534312319749352E+07,
2459720.500000000, A.D. 2022-May-21 00:00:00.0000, 1.485861495999395E+07, -4.387336176352062E+08, -1.559334297429714E+07,
2459727.500000000, A.D. 2022-May-28 00:00:00.0000, 2.515071402127682E+07, -4.374885608770448E+08, -1.583462944565246E+07,
2459734.500000000, A.D. 2022-Jun-04 00:00:00.0000, 3.542830965591884E+07, -4.359915715721932E+08, -1.606679673794109E+07,
2459741.500000000, A.D. 2022-Jun-11 00:00:00.0000, 4.568537475325357E+07, -4.342421802313625E+08, -1.628966197339395E+07,
2459748.500000000, A.D. 2022-Jun-18 00:00:00.0000, 5.591582917973122E+07, -4.322400507833230E+08, -1.650304543211219E+07,
2459755.500000000, A.D. 2022-Jun-25 00:00:00.0000, 6.611354192251597E+07, -4.299849838236052E+08, -1.670677072874501E+07,
2459762.500000000, A.D. 2022-Jul-02 00:00:00.0000, 7.627233351903024E+07, -4.274769200567744E+08, -1.690066502130967E+07,
2459769.500000000, A.D. 2022-Jul-09 00:00:00.0000, 8.638597916863440E+07, -4.247159437491913E+08, -1.708455927319658E+07,
2459776.500000000, A.D. 2022-Jul-16 00:00:00.0000, 9.644821247695436E+07, -4.217022851029661E+08, -1.725828847444344E+07,
2459783.500000000, A.D. 2022-Jul-23 00:00:00.0000, 1.064527276399957E+08, -4.184363214658481E+08, -1.742169161389312E+07,
2459790.500000000, A.D. 2022-Jul-30 00:00:00.0000, 1.163931801581782E+08, -4.149185807222197E+08, -1.757461168373308E+07,
2459797.500000000, A.D. 2022-Aug-06 00:00:00.0000, 1.262631896859350E+08, -4.111497462093233E+08, -1.771689599335209E+07,
2459804.500000000, A.D. 2022-Aug-13 00:00:00.0000, 1.360563441999152E+08, -4.071306603981033E+08, -1.784839649166623E+07,
2459811.500000000, A.D. 2022-Aug-20 00:00:00.0000, 1.457662039213686E+08, -4.028623278352537E+08, -1.796896999477747E+07,
2459818.500000000, A.D. 2022-Aug-27 00:00:00.0000, 1.553863050650670E+08, -3.983459180649433E+08, -1.807847838422459E+07,
2459825.500000000, A.D. 2022-Sep-03 00:00:00.0000, 1.649101636664244E+08, -3.935827686316712E+08, -1.817678880722138E+07,
2459832.500000000, A.D. 2022-Sep-10 00:00:00.0000, 1.743312795801166E+08, -3.885743881302431E+08, -1.826377388481474E+07,
2459839.500000000, A.D. 2022-Sep-17 00:00:00.0000, 1.836431406824405E+08, -3.833224592932905E+08, -1.833931193047738E+07,
2459846.500000000, A.D. 2022-Sep-24 00:00:00.0000, 1.928392273408379E+08, -3.778288421549420E+08, -1.840328718859306E+07,
2459853.500000000, A.D. 2022-Oct-01 00:00:00.0000, 2.019130173939604E+08, -3.720955773007969E+08, -1.845559011647488E+07,
2459860.500000000, A.D. 2022-Oct-08 00:00:00.0000, 2.108579920526140E+08, -3.661248886708308E+08, -1.849611770440574E+07,
2459867.500000000, A.D. 2022-Oct-15 00:00:00.0000, 2.196676417913117E+08, -3.599191847048451E+08, -1.852477365000513E+07,
2459874.500000000, A.D. 2022-Oct-22 00:00:00.0000, 2.283354700485528E+08, -3.534810595011986E+08, -1.854146832420994E+07,
2459881.500000000, A.D. 2022-Oct-29 00:00:00.0000, 2.368549972329822E+08, -3.468132965667454E+08, -1.854611896976690E+07,
2459888.500000000, A.D. 2022-Nov-05 00:00:00.0000, 2.452197671349915E+08, -3.399188724018016E+08, -1.853865010061623E+07,
2459895.500000000, A.D. 2022-Nov-12 00:00:00.0000, 2.534233537786366E+08, -3.328009586391345E+08, -1.851899381810708E+07,
2459902.500000000, A.D. 2022-Nov-19 00:00:00.0000, 2.614593679928196E+08, -3.254629236769159E+08, -1.848709005565631E+07,
2459909.500000000, A.D. 2022-Nov-26 00:00:00.0000, 2.693214639613142E+08, -3.179083341882214E+08, -1.844288680792029E+07,
2459916.500000000, A.D. 2022-Dec-03 00:00:00.0000, 2.770033459141636E+08, -3.101409565037861E+08, -1.838634036011533E+07,
2459923.500000000, A.D. 2022-Dec-10 00:00:00.0000, 2.844987750011749E+08, -3.021647578346630E+08, -1.831741551950762E+07,
2459930.500000000, A.D. 2022-Dec-17 00:00:00.0000, 2.918015763654094E+08, -2.939839073449078E+08, -1.823608585266879E+07,
2459937.500000000, A.D. 2022-Dec-24 00:00:00.0000, 2.989056465170183E+08, -2.856027771241910E+08, -1.814233394310421E+07,
2459944.500000000, A.D. 2022-Dec-31 00:00:00.0000, 3.058049613548141E+08, -2.770259429356937E+08, -1.803615169234253E+07,
2459951.500000000, A.D. 2023-Jan-07 00:00:00.0000, 3.124935849478031E+08, -2.682581837598536E+08, -1.791754059605022E+07,
2459958.500000000, A.D. 2023-Jan-14 00:00:00.0000, 3.189656770982633E+08, -2.593044796206814E+08, -1.778651177313238E+07,
2459965.500000000, A.D. 2023-Jan-21 00:00:00.0000, 3.252154990287279E+08, -2.501700108497376E+08, -1.764308594711222E+07,
2459972.500000000, A.D. 2023-Jan-28 00:00:00.0000, 3.312374208485622E+08, -2.408601589654223E+08, -1.748729373145901E+07,
2459979.500000000, A.D. 2023-Feb-04 00:00:00.0000, 3.370259305804161E+08, -2.313805061254970E+08, -1.731917595147744E+07,
2459986.500000000, A.D. 2023-Feb-11 00:00:00.0000, 3.425756429380106E+08, -2.217368333351003E+08, -1.713878385292937E+07,
2459993.500000000, A.D. 2023-Feb-18 00:00:00.0000, 3.478813077752208E+08, -2.119351182222532E+08, -1.694617925776626E+07,
2460000.500000000, A.D. 2023-Feb-25 00:00:00.0000, 3.529378184500920E+08, -2.019815325307886E+08, -1.674143470313293E+07,
2460007.500000000, A.D. 2023-Mar-04 00:00:00.0000, 3.577402201855085E+08, -1.918824392999169E+08, -1.652463357029477E+07,
2460014.500000000, A.D. 2023-Mar-11 00:00:00.0000, 3.622837184336714E+08, -1.816443897186646E+08, -1.629587020487880E+07,
2460021.500000000, A.D. 2023-Mar-18 00:00:00.0000, 3.665636872685429E+08, -1.712741196945955E+08, -1.605525003563225E+07,
2460028.500000000, A.D. 2023-Mar-25 00:00:00.0000, 3.705756779846306E+08, -1.607785461746113E+08, -1.580288971309404E+07,
2460035.500000000, A.D. 2023-Apr-01 00:00:00.0000, 3.743154283009852E+08, -1.501647628149460E+08, -1.553891727382120E+07,
2460042.500000000, A.D. 2023-Apr-08 00:00:00.0000, 3.777788715315695E+08, -1.394400337681023E+08, -1.526347217238411E+07,
2460049.500000000, A.D. 2023-Apr-15 00:00:00.0000, 3.809621433614647E+08, -1.286117866905486E+08, -1.497670505606620E+07,
2460056.500000000, A.D. 2023-Apr-22 00:00:00.0000, 3.838615880094485E+08, -1.176876080222229E+08, -1.467877769678725E+07,
2460063.500000000, A.D. 2023-Apr-29 00:00:00.0000, 3.864737664813634E+08, -1.066752382828621E+08, -1.436986314622205E+07,
2460070.500000000, A.D. 2023-May-06 00:00:00.0000, 3.887954651254118E+08, -9.558256560393085E+07, -1.405014580633219E+07,
2460077.500000000, A.D. 2023-May-13 00:00:00.0000, 3.908237034842587E+08, -8.441761839277329E+07, -1.371982139811282E+07,
2460084.500000000, A.D. 2023-May-20 00:00:00.0000, 3.925557416489133E+08, -7.318855762540433E+07, -1.337909688969761E+07,
2460091.500000000, A.D. 2023-May-27 00:00:00.0000, 3.939890872782823E+08, -6.190366880467188E+07, -1.302819040363184E+07,
2460098.500000000, A.D. 2023-Jun-03 00:00:00.0000, 3.951215023124425E+08, -5.057135356719508E+07, -1.266733110623250E+07,
2460105.500000000, A.D. 2023-Jun-10 00:00:00.0000, 3.959510093742805E+08, -3.920012096456245E+07, -1.229675908219688E+07,
2460112.500000000, A.D. 2023-Jun-17 00:00:00.0000, 3.964758979196926E+08, -2.779857849336684E+07, -1.191672520751530E+07,
2460119.500000000, A.D. 2023-Jun-24 00:00:00.0000, 3.966947304265221E+08, -1.637542283556633E+07, -1.152749104562524E+07,
2460126.500000000, A.D. 2023-Jul-01 00:00:00.0000, 3.966063488445464E+08, -4.939429498677942E+06, -1.112932872245187E+07,
2460133.500000000, A.D. 2023-Jul-08 00:00:00.0000, 3.962098796062091E+08, 6.500559448390803E+06, -1.072252055947511E+07,
2460140.500000000, A.D. 2023-Jul-15 00:00:00.0000, 3.955047359000492E+08, 1.793564669067639E+07, -1.030735857906943E+07,
$$EOE